{"type": "FeatureCollection", "features": [ {"type": "Feature", "properties": {"norad_id": 39122, "name": "EUTELSAT 117 WEST A", "group": "eutelsat", "lat": 0.004834061248455255, "lon": 151.84877896537114, "alt_km": 35793.11177757071, "timestamp": "2025-12-25T11:37:44.093119+00:00", "meta": {"OBJECT_NAME": "EUTELSAT 117 WEST A", "OBJECT_ID": "2013-012A", "EPOCH": "2025-12-25T03:39:37.302048", "MEAN_MOTION": 1.00270793, "ECCENTRICITY": 0.0002746, "INCLINATION": 0.0189, "RA_OF_ASC_NODE": 321.021, "ARG_OF_PERICENTER": 316.4118, "MEAN_ANOMALY": 114.594, "EPHEMERIS_TYPE": 0, "CLASSIFICATION_TYPE": "U", "NORAD_CAT_ID": 39122, "ELEMENT_SET_NO": 999, "REV_AT_EPOCH": 4668, "BSTAR": 0, "MEAN_MOTION_DOT": 8e-08, "MEAN_MOTION_DDOT": 0}, "tle": {"line1": "1 39122U 13012A   25359.15251507  .00000008  00000+0  00000+0 0  9990", "line2": "2 39122   0.0189 321.0210 0002746 316.4118 114.5940  1.00270793 46686"}}, "geometry": {"type": "Point", "coordinates": [151.84877896537114, 0.004834061248455255]}}, {"type": "Feature", "properties": {"norad_id": 39163, "name": "EUTELSAT 7B", "group": "eutelsat", "lat": -0.08624010332874203, "lon": -84.37471178378368, "alt_km": 35772.74294248246, "timestamp": "2025-12-25T11:37:44.093132+00:00", "meta": {"OBJECT_NAME": "EUTELSAT 7B", "OBJECT_ID": "2013-022A", "EPOCH": "2025-12-24T23:24:19.351008", "MEAN_MOTION": 1.00271638, "ECCENTRICITY": 0.0004609, "INCLINATION": 0.0657, "RA_OF_ASC_NODE": 9.0547, "ARG_OF_PERICENTER": 313.3925, "MEAN_ANOMALY": 129.3681, "EPHEMERIS_TYPE": 0, "CLASSIFICATION_TYPE": "U", "NORAD_CAT_ID": 39163, "ELEMENT_SET_NO": 999, "REV_AT_EPOCH": 4620, "BSTAR": 0, "MEAN_MOTION_DOT": 6.9e-07, "MEAN_MOTION_DDOT": 0}, "tle": {"line1": "1 39163U 13022A   25358.97522397  .00000069  00000+0  00000+0 0  9990", "line2": "2 39163   0.0657   9.0547 0004609 313.3925 129.3681  1.00271638 46202"}}, "geometry": {"type": "Point", "coordinates": [-84.37471178378368, -0.08624010332874203]}}, {"type": "Feature", "properties": {"norad_id": 39612, "name": "EXPRESS-AT1", "group": "eutelsat", "lat": -0.003976578116241103, "lon": -35.33812546547844, "alt_km": 35789.5432084807, "timestamp": "2025-12-25T11:37:44.093145+00:00", "meta": {"OBJECT_NAME": "EXPRESS-AT1", "OBJECT_ID": "2014-010A", "EPOCH": "2025-12-25T01:46:38.582688", "MEAN_MOTION": 1.0027131, "ECCENTRICITY": 8.83e-05, "INCLINATION": 0.0118, "RA_OF_ASC_NODE": 294.5388, "ARG_OF_PERICENTER": 184.5356, "MEAN_ANOMALY": 57.4216, "EPHEMERIS_TYPE": 0, "CLASSIFICATION_TYPE": "U", "NORAD_CAT_ID": 39612, "ELEMENT_SET_NO": 999, "REV_AT_EPOCH": 4307, "BSTAR": 0, "MEAN_MOTION_DOT": 1e-06, "MEAN_MOTION_DDOT": 0}, "tle": {"line1": "1 39612U 14010A   25359.07405767  .00000100  00000+0  00000+0 0  9996", "line2": "2 39612   0.0118 294.5388 0000883 184.5356  57.4216  1.00271310 43077"}}, "geometry": {"type": "Point", "coordinates": [-35.33812546547844, -0.003976578116241103]}}, {"type": "Feature", "properties": {"norad_id": 39613, "name": "EXPRESS-AT2", "group": "eutelsat", "lat": 0.018973338455421353, "lon": 48.54534909141816, "alt_km": 35790.86572262549, "timestamp": "2025-12-25T11:37:44.093156+00:00", "meta": {"OBJECT_NAME": "EXPRESS-AT2", "OBJECT_ID": "2014-010B", "EPOCH": "2025-12-25T04:34:38.772192", "MEAN_MOTION": 1.00271861, "ECCENTRICITY": 0.0001582, "INCLINATION": 0.0163, "RA_OF_ASC_NODE": 292.9031, "ARG_OF_PERICENTER": 340.1692, "MEAN_ANOMALY": 29.4052, "EPHEMERIS_TYPE": 0, "CLASSIFICATION_TYPE": "U", "NORAD_CAT_ID": 39613, "ELEMENT_SET_NO": 999, "REV_AT_EPOCH": 4275, "BSTAR": 0, "MEAN_MOTION_DOT": -2.6e-06, "MEAN_MOTION_DDOT": 0}, "tle": {"line1": "1 39613U 14010B   25359.19072653 -.00000260  00000+0  00000+0 0  9992", "line2": "2 39613   0.0163 292.9031 0001582 340.1692  29.4052  1.00271861 42757"}}, "geometry": {"type": "Point", "coordinates": [48.54534909141816, 0.018973338455421353]}}, {"type": "Feature", "properties": {"norad_id": 39773, "name": "EUTELSAT 3B", "group": "eutelsat", "lat": -0.07844494215607033, "lon": -88.20124060702507, "alt_km": 35772.17561439602, "timestamp": "2025-12-25T11:37:44.093168+00:00", "meta": {"OBJECT_NAME": "EUTELSAT 3B", "OBJECT_ID": "2014-030A", "EPOCH": "2025-12-24T23:23:11.959008", "MEAN_MOTION": 1.00269922, "ECCENTRICITY": 0.000425, "INCLINATION": 0.0605, "RA_OF_ASC_NODE": 349.0634, "ARG_OF_PERICENTER": 245.9428, "MEAN_ANOMALY": 212.637, "EPHEMERIS_TYPE": 0, "CLASSIFICATION_TYPE": "U", "NORAD_CAT_ID": 39773, "ELEMENT_SET_NO": 999, "REV_AT_EPOCH": 4232, "BSTAR": 0, "MEAN_MOTION_DOT": 4.1e-07, "MEAN_MOTION_DDOT": 0}, "tle": {"line1": "1 39773U 14030A   25358.97444397  .00000041  00000+0  00000+0 0  9990", "line2": "2 39773   0.0605 349.0634 0004250 245.9428 212.6370  1.00269922 42329"}}, "geometry": {"type": "Point", "coordinates": [-88.20124060702507, -0.07844494215607033]}}, {"type": "Feature", "properties": {"norad_id": 40425, "name": "EUTELSAT 115 WEST B", "group": "eutelsat", "lat": -0.0022803506672386194, "lon": 153.76115682057343, "alt_km": 35786.670904138846, "timestamp": "2025-12-25T11:37:44.093180+00:00", "meta": {"OBJECT_NAME": "EUTELSAT 115 WEST B", "OBJECT_ID": "2015-010B", "EPOCH": "2025-12-24T09:59:58.343136", "MEAN_MOTION": 1.00271259, "ECCENTRICITY": 1.435e-05, "INCLINATION": 0.0435, "RA_OF_ASC_NODE": 188.915, "ARG_OF_PERICENTER": 182.2118, "MEAN_ANOMALY": 117.1483, "EPHEMERIS_TYPE": 0, "CLASSIFICATION_TYPE": "U", "NORAD_CAT_ID": 40425, "ELEMENT_SET_NO": 999, "REV_AT_EPOCH": 3964, "BSTAR": 0, "MEAN_MOTION_DOT": -4e-08, "MEAN_MOTION_DDOT": 0}, "tle": {"line1": "1 40425U 15010B   25358.41664749 -.00000004  00000+0  00000+0 0  9999", "line2": "2 40425   0.0435 188.9150 0000143 182.2118 117.1483  1.00271259 39646"}}, "geometry": {"type": "Point", "coordinates": [153.76115682057343, -0.0022803506672386194]}}, {"type": "Feature", "properties": {"norad_id": 40875, "name": "EUTELSAT 8 WEST B", "group": "eutelsat", "lat": -0.08049234054684565, "lon": -99.3434738286373, "alt_km": 35768.8554679854, "timestamp": "2025-12-25T11:37:44.093192+00:00", "meta": {"OBJECT_NAME": "EUTELSAT 8 WEST B", "OBJECT_ID": "2015-039B", "EPOCH": "2025-12-24T23:19:57.271296", "MEAN_MOTION": 1.00271306, "ECCENTRICITY": 0.0004225, "INCLINATION": 0.0642, "RA_OF_ASC_NODE": 8.6707, "ARG_OF_PERICENTER": 265.859, "MEAN_ANOMALY": 161.1959, "EPHEMERIS_TYPE": 0, "CLASSIFICATION_TYPE": "U", "NORAD_CAT_ID": 40875, "ELEMENT_SET_NO": 999, "REV_AT_EPOCH": 3791, "BSTAR": 0, "MEAN_MOTION_DOT": -4.5e-07, "MEAN_MOTION_DDOT": 0}, "tle": {"line1": "1 40875U 15039B   25358.97219064 -.00000045  00000+0  00000+0 0  9991", "line2": "2 40875   0.0642   8.6707 0004225 265.8590 161.1959  1.00271306 37916"}}, "geometry": {"type": "Point", "coordinates": [-99.3434738286373, -0.08049234054684565]}}, {"type": "Feature", "properties": {"norad_id": 41310, "name": "EUTELSAT 9B", "group": "eutelsat", "lat": -0.04012751317355821, "lon": -82.30304642261945, "alt_km": 35766.62588117286, "timestamp": "2025-12-25T11:37:44.093204+00:00", "meta": {"OBJECT_NAME": "EUTELSAT 9B", "OBJECT_ID": "2016-005A", "EPOCH": "2025-12-24T06:17:44.244960", "MEAN_MOTION": 1.00272813, "ECCENTRICITY": 0.00045278, "INCLINATION": 0.023, "RA_OF_ASC_NODE": 38.5865, "ARG_OF_PERICENTER": 233.3148, "MEAN_ANOMALY": 284.5874, "EPHEMERIS_TYPE": 0, "CLASSIFICATION_TYPE": "U", "NORAD_CAT_ID": 41310, "ELEMENT_SET_NO": 999, "REV_AT_EPOCH": 3636, "BSTAR": 0, "MEAN_MOTION_DOT": 8.3e-07, "MEAN_MOTION_DDOT": 0}, "tle": {"line1": "1 41310U 16005A   25358.26231765  .00000083  00000+0  00000+0 0  9995", "line2": "2 41310   0.0230  38.5865 0004527 233.3148 284.5874  1.00272813 36363"}}, "geometry": {"type": "Point", "coordinates": [-82.30304642261945, -0.04012751317355821]}}, {"type": "Feature", "properties": {"norad_id": 41382, "name": "EUTELSAT 65 WEST A", "group": "eutelsat", "lat": -0.03622194900915427, "lon": -156.53407496871563, "alt_km": 35783.3696615231, "timestamp": "2025-12-25T11:37:44.093215+00:00", "meta": {"OBJECT_NAME": "EUTELSAT 65 WEST A", "OBJECT_ID": "2016-014A", "EPOCH": "2025-12-25T00:39:29.297088", "MEAN_MOTION": 1.00271925, "ECCENTRICITY": 0.0002282, "INCLINATION": 0.0484, "RA_OF_ASC_NODE": 343.8685, "ARG_OF_PERICENTER": 293.2062, "MEAN_ANOMALY": 121.4109, "EPHEMERIS_TYPE": 0, "CLASSIFICATION_TYPE": "U", "NORAD_CAT_ID": 41382, "ELEMENT_SET_NO": 999, "REV_AT_EPOCH": 3578, "BSTAR": 0, "MEAN_MOTION_DOT": -2.55e-06, "MEAN_MOTION_DDOT": 0}, "tle": {"line1": "1 41382U 16014A   25359.02742242 -.00000255  00000+0  00000+0 0  9998", "line2": "2 41382   0.0484 343.8685 0002282 293.2062 121.4109  1.00271925 35789"}}, "geometry": {"type": "Point", "coordinates": [-156.53407496871563, -0.03622194900915427]}}, {"type": "Feature", "properties": {"norad_id": 41589, "name": "EUTELSAT 117 WEST B", "group": "eutelsat", "lat": -0.00308080807019279, "lon": 151.6765305769535, "alt_km": 35786.45403818634, "timestamp": "2025-12-25T11:37:44.093227+00:00", "meta": {"OBJECT_NAME": "EUTELSAT 117 WEST B", "OBJECT_ID": "2016-038B", "EPOCH": "2025-12-24T09:59:01.014144", "MEAN_MOTION": 1.00277873, "ECCENTRICITY": 6.384e-05, "INCLINATION": 0.0094, "RA_OF_ASC_NODE": 154.0765, "ARG_OF_PERICENTER": 139.5473, "MEAN_ANOMALY": 192.3072, "EPHEMERIS_TYPE": 0, "CLASSIFICATION_TYPE": "U", "NORAD_CAT_ID": 41589, "ELEMENT_SET_NO": 999, "REV_AT_EPOCH": 3491, "BSTAR": 0, "MEAN_MOTION_DOT": 9e-08, "MEAN_MOTION_DDOT": 0}, "tle": {"line1": "1 41589U 16038B   25358.41598396  .00000009  00000+0  00000+0 0  9990", "line2": "2 41589   0.0094 154.0765 0000638 139.5473 192.3072  1.00277873 34915"}}, "geometry": {"type": "Point", "coordinates": [151.6765305769535, -0.00308080807019279]}}]}